email,phone,country,name,address,currency,numberrange
sit@outlook.edu,(960) 580-4775,Peru,Caryn Cabrera,774-4792 Sed Rd.,$72.68,9
congue.in.scelerisque@aol.org,(643) 143-6289,Ukraine,Cade Robles,"P.O. Box 377, 5243 Nulla Avenue",$19.86,1
sed.eget@icloud.ca,(136) 825-5152,Colombia,Vielka Robbins,316-748 Aenean Street,$45.01,3
lobortis@protonmail.couk,1-288-184-4328,Sweden,Maxwell Porter,732-7876 Lacus Rd.,$38.98,1
lacus.quisque@protonmail.org,(441) 443-6337,Russian Federation,Kiayada Ayers,Ap #998-7939 Mi. St.,$89.52,1
nibh.sit@aol.ca,(258) 121-4058,New Zealand,Kristen Harper,743-5635 Sagittis Avenue,$59.18,7
senectus.et.netus@yahoo.ca,(433) 234-2478,Colombia,Wylie Fulton,3712 Mauris Rd.,$14.01,1
orci.phasellus.dapibus@yahoo.com,1-861-266-4317,Vietnam,Gray Whitley,2697 Interdum. St.,$38.02,4
ridiculus.mus@hotmail.net,(587) 402-5714,Italy,Dolan Chen,Ap #494-299 Morbi Rd.,$84.06,7
metus@yahoo.couk,1-921-788-9627,Italy,Upton Young,Ap #942-7719 Ornare Street,$26.72,9
aliquam.gravida.mauris@icloud.couk,(683) 561-2322,Chile,Charlotte Keller,"979-8644 Pede, St.",$25.47,1
blandit.viverra.donec@protonmail.couk,(157) 641-2014,United Kingdom,Candice Stevenson,9629 Ut St.,$72.10,7
scelerisque@icloud.com,(543) 566-6929,New Zealand,Tobias Sellers,992-9301 Dignissim. Av.,$92.06,4
orci.phasellus@outlook.org,1-456-153-4279,Philippines,Jenette Leach,7150 Et Ave,$31.73,5
sagittis.duis@protonmail.edu,1-777-318-8815,Belgium,Yuri Emerson,"P.O. Box 755, 9030 Auctor St.",$61.80,10
fringilla@aol.couk,1-758-804-6354,Germany,Jessica Potter,4602 Commodo Rd.,$56.45,9
inceptos.hymenaeos@icloud.net,1-453-845-1778,Singapore,Quyn Ball,711-4111 Varius Rd.,$37.16,6
natoque.penatibus.et@outlook.org,(983) 122-2731,Indonesia,Gay Barrett,710-1875 Donec Rd.,$48.37,5
enim.condimentum@icloud.com,1-113-295-8831,Nigeria,Keelie Drake,4480 Tincidunt St.,$17.91,6
morbi.tristique.senectus@yahoo.couk,1-568-822-2980,South Africa,Xantha Holmes,2771 Erat Av.,$82.06,5
tempor.diam@icloud.ca,(482) 209-4818,India,Vernon Murphy,654-1113 Duis Av.,$97.57,3
tincidunt@hotmail.org,(354) 881-6127,Russian Federation,Ulla Schneider,"P.O. Box 750, 9184 Sed Avenue",$15.57,4
sit.amet@hotmail.org,(318) 872-1156,Belgium,Derek Roberson,328-927 Accumsan Road,$75.70,1
nisl.arcu@protonmail.com,1-668-614-4516,Chile,Travis Mathis,405-3366 Pellentesque Street,$21.09,7
suspendisse@yahoo.net,1-741-586-6531,Chile,Quintessa Rodgers,"P.O. Box 838, 3059 Elit St.",$41.73,7
tristique.senectus@yahoo.net,1-913-101-8031,Russian Federation,Roanna Page,"P.O. Box 959, 3930 Lobortis Rd.",$57.97,9
amet.ante.vivamus@aol.edu,(503) 256-4630,United States,Ulysses Bruce,"P.O. Box 431, 6740 Placerat, Rd.",$97.92,2
nunc.mauris@outlook.net,(378) 171-9848,Spain,Ezra Knowles,Ap #813-3606 Nunc Avenue,$97.57,0
molestie.orci@protonmail.com,1-141-513-8207,United States,Ivan Mcmillan,Ap #771-8475 Pharetra Avenue,$91.79,4
et@google.ca,(477) 706-7238,Italy,Azalia Velazquez,463-9433 Ipsum Av.,$13.10,7
eget.dictum.placerat@aol.couk,1-573-511-5459,Philippines,Camden Wiley,2459 Molestie St.,$48.32,6
dui.quis.accumsan@icloud.ca,1-302-688-3865,Germany,Marvin English,861-1577 Parturient Ave,$47.82,8
mi@icloud.org,(444) 580-2371,United Kingdom,Sydnee Callahan,Ap #718-3791 Nunc Rd.,$26.61,5
elit.pellentesque@outlook.net,(256) 418-7462,Singapore,Porter Sullivan,Ap #492-8060 Lobortis Rd.,$28.40,9
vulputate@protonmail.org,1-562-142-1446,Philippines,Shea Fry,3870 Amet Rd.,$2.74,2
et.magna@icloud.com,1-269-367-5698,Norway,Dai Pugh,940-3663 Nisl St.,$13.34,0
pharetra.ut@aol.org,1-562-581-5450,Italy,Hunter Harrington,"Ap #944-9711 Ornare, St.",$59.99,2
ipsum.nunc@yahoo.com,1-260-982-7789,Ireland,Phoebe Garner,Ap #953-2495 Nibh St.,$93.98,3
auctor.odio.a@hotmail.edu,(574) 448-7188,Spain,Brody Burgess,Ap #626-6006 Lorem Rd.,$94.88,5
mauris.ipsum@google.ca,1-558-388-1324,Russian Federation,Emery Perkins,Ap #724-999 Orci. St.,$20.30,7
suspendisse.dui@outlook.ca,1-186-532-7133,South Africa,Murphy Lynn,6290 Est Street,$9.63,6
nulla.eu.neque@icloud.couk,(234) 481-7772,Indonesia,Alyssa Ellison,"448-5900 Quis, Ave",$96.14,2
morbi.sit@hotmail.ca,1-873-820-6938,Indonesia,Chanda Hewitt,"P.O. Box 712, 5112 Blandit Rd.",$63.94,10
massa.rutrum.magna@outlook.edu,(428) 621-8212,Poland,Farrah Phelps,Ap #743-7510 Integer St.,$31.88,1
lorem.semper@yahoo.couk,(656) 611-1031,Mexico,Jonah Velasquez,"4644 Adipiscing, Avenue",$4.17,6
egestas.aliquam@protonmail.ca,1-755-925-1312,Italy,Channing Ball,"P.O. Box 809, 5978 Gravida St.",$82.33,4
mauris.sapien@aol.couk,1-212-710-8476,Chile,Adele Padilla,Ap #927-1838 Facilisis St.,$7.83,6
purus.ac.tellus@yahoo.net,1-536-833-2173,Poland,Chanda Carpenter,Ap #723-3272 Magna Av.,$69.88,0
ipsum.sodales@icloud.org,1-462-816-4180,France,Flynn Brock,587-7536 Donec Street,$23.48,8
imperdiet.ullamcorper@protonmail.com,1-617-227-9365,Turkey,Hilel Atkins,"6363 Sed, Street",$6.44,0
libero.est.congue@protonmail.com,(487) 356-0276,Chile,Kennan Rivera,137-9841 Donec Avenue,$80.17,2
ut.erat@outlook.net,1-837-267-8321,Turkey,Daryl Alvarado,Ap #903-1003 Luctus Rd.,$63.72,6
mollis.duis.sit@protonmail.edu,(941) 676-7781,Peru,Quinn Holt,746-4253 Ante Av.,$80.98,6
curae.donec@yahoo.com,(557) 777-3114,South Korea,Kennan Gordon,Ap #690-5243 Lectus Street,$59.13,1
nulla.tincidunt.neque@yahoo.ca,1-724-673-7302,Pakistan,Brynne Cunningham,541-8303 Mattis Av.,$20.71,5
donec.feugiat@icloud.edu,(800) 445-7227,Belgium,Mikayla Alvarez,"1687 Non, Rd.",$55.09,4
vestibulum@outlook.org,(817) 863-5453,Philippines,Hedley Anderson,Ap #108-5291 Fusce Av.,$90.94,2
lacus.varius@hotmail.couk,(727) 272-8158,Nigeria,Jocelyn Reese,"Ap #308-7590 Lorem, Rd.",$35.64,6
enim.nunc@aol.net,1-203-372-7816,Canada,Stephen Foster,"P.O. Box 989, 3644 Nulla. Street",$9.39,1
et.magna@yahoo.net,1-136-878-6182,South Korea,Geoffrey Armstrong,Ap #752-9445 Enim. Rd.,$58.44,8
netus.et.malesuada@aol.com,1-205-438-8756,Ireland,Noel Chandler,"P.O. Box 637, 8271 Suspendisse Rd.",$92.31,5
enim.gravida@yahoo.couk,1-673-157-0462,Nigeria,Marsden Shepard,541-6275 Massa. Road,$94.17,1
rutrum.fusce@google.org,1-261-563-2648,Spain,Plato Dunn,"P.O. Box 713, 3762 Urna Ave",$29.68,10
luctus.felis.purus@hotmail.ca,(428) 623-7506,Costa Rica,Bert Rojas,"Ap #984-770 Ut, Ave",$17.71,9
odio@google.couk,(963) 268-6561,France,Jerry Morgan,"P.O. Box 680, 7310 Nec, Ave",$21.08,1
accumsan.neque@protonmail.com,(334) 464-7482,Russian Federation,Elvis Terrell,"P.O. Box 120, 3882 Lectus Road",$41.73,4
ultricies.adipiscing@icloud.com,(737) 525-0228,Chile,Bradley Valdez,"628-8788 Et, Av.",$28.18,4
amet.orci@protonmail.edu,(467) 111-6468,Ireland,Calvin Mcintyre,701-6192 Ac Street,$37.56,7
nam.porttitor@outlook.couk,(481) 425-3552,China,Rhiannon Mendez,"P.O. Box 228, 9467 Elit, Street",$56.03,8
nascetur.ridiculus.mus@yahoo.ca,(281) 395-1635,Russian Federation,Kay Turner,289-5738 Interdum. Ave,$14.93,1
erat.nonummy@hotmail.net,1-724-776-4233,India,Macon Mcbride,Ap #985-1444 Blandit Avenue,$10.12,6
faucibus.ut.nulla@protonmail.org,1-268-451-2747,Netherlands,Gil Potts,Ap #458-975 Mus. Road,$6.25,4
faucibus@hotmail.org,(631) 626-7413,Belgium,Dale Miles,"P.O. Box 483, 666 Elit St.",$80.85,6
morbi.non@icloud.ca,1-454-925-6151,Italy,Lacy Dickson,"607-9046 Et, Rd.",$50.37,3
odio@icloud.couk,(887) 577-7061,United Kingdom,Philip Beck,7658 Ut Rd.,$18.63,4
donec.egestas.aliquam@outlook.ca,(796) 325-6340,Spain,Ezra Duke,Ap #355-2393 Eu St.,$51.09,8
cras.vehicula@yahoo.net,1-433-523-9850,Colombia,Troy Leon,"9628 Amet, St.",$16.39,5
dictum.mi@aol.ca,1-283-664-3532,Australia,Zelenia Graves,178-7865 Scelerisque Rd.,$99.14,8
at.pretium@yahoo.net,1-553-126-5608,United States,Ali Tucker,"Ap #339-387 Ornare, Road",$24.22,7
gravida.mauris.ut@protonmail.org,1-751-508-2501,Sweden,Candice Long,"P.O. Box 972, 743 Adipiscing St.",$40.53,7
faucibus.morbi@hotmail.ca,(571) 408-4476,Germany,Alma Park,Ap #538-118 Congue Rd.,$29.49,5
nulla.ante@yahoo.edu,1-851-726-6874,Pakistan,Yoshio Bowman,"P.O. Box 151, 1237 Aliquam Street",$83.59,5
morbi.neque.tellus@protonmail.couk,1-211-523-7252,Ireland,Hu Mccray,531-1562 Id Rd.,$18.24,4
donec.nibh@yahoo.org,(858) 685-0260,Mexico,Germane Holmes,731-4075 At Road,$77.82,1
in.scelerisque@yahoo.com,(450) 672-0844,South Korea,Winter Tyson,"Ap #358-186 Amet, Avenue",$56.28,6
felis.adipiscing.fringilla@yahoo.net,(662) 745-6177,France,Lunea Lucas,"P.O. Box 544, 3044 Consequat, St.",$37.49,4
vulputate.velit@aol.edu,1-745-448-7059,France,Colette Robertson,Ap #765-3298 Luctus St.,$76.98,8
erat.vel@hotmail.net,(859) 939-6477,Belgium,Chantale Serrano,1834 Vel Rd.,$34.00,6
nulla@hotmail.ca,1-251-440-3921,Russian Federation,Ezra Richards,719-4603 Odio Road,$82.30,3
curae.phasellus@hotmail.couk,(481) 684-3075,South Korea,Raja Pitts,5480 Ut Street,$15.78,7
montes.nascetur.ridiculus@google.net,(771) 128-3635,South Korea,Risa Nichols,211-5965 Dolor Ave,$99.61,8
posuere.cubilia.curae@icloud.com,(956) 688-9713,New Zealand,Kerry Herrera,Ap #591-8161 Etiam Street,$46.82,1
sociis@google.couk,1-857-346-8938,United Kingdom,Camilla Mccormick,"P.O. Box 605, 3502 Adipiscing Avenue",$98.73,2
sit.amet.metus@google.edu,(725) 682-2347,Belgium,Nayda Ochoa,690-4679 Aliquam Road,$86.45,3
sed.sapien@protonmail.net,1-442-257-5222,India,Barbara Olson,Ap #282-8158 Justo. Ave,$60.09,1
mattis.ornare@aol.com,(673) 316-3353,Netherlands,Oscar Bond,616-3451 Risus. Road,$64.54,4
cum@google.couk,(790) 670-6771,Turkey,Lysandra Drake,Ap #594-2384 Condimentum Avenue,$2.10,8
ligula.eu@yahoo.edu,1-374-662-8498,Chile,Mia Wood,"792-3212 Elit, Ave",$35.24,9
duis.elementum@protonmail.com,1-258-876-6515,Colombia,Melvin England,8024 Massa Road,$89.85,2
duis@icloud.org,1-335-958-5311,Pakistan,Janna Yates,Ap #482-8670 Nonummy Rd.,$73.96,10
